0 COSMOS 2251 DEB
1 34560U 93036UW  13282.78462569  .00001651  00000-0  58515-3 0  8609
2 34560 074.0309 151.2136 0033118 232.4061 246.9345 14.35010757240705
0 COSMOS 2251 DEB
1 34560U 93036UW  13286.82950157  .00002508  00000-0  88362-3 0  8620
2 34560 074.0312 143.7993 0033010 224.0269 262.9927 14.35022771241281
0 COSMOS 2251 DEB
1 34560U 93036UW  13289.39659183  .00003162  00000-0  11115-2 0  8639
2 34560 074.0304 139.0927 0032858 218.6625 204.9058 14.35038265241658
0 COSMOS 2251 DEB
1 34560U 93036UW  13291.41928299  .00002897  00000-0  10189-2 0  8647
2 34560 074.0300 135.3838 0032760 214.4470 214.4653 14.35049563241940
0 COSMOS 2251 DEB
1 34560U 93036UW  13293.73070652  .00003417  00000-0  11999-2 0  8655
2 34560 074.0303 131.1454 0032665 209.6539 275.7442 14.35059802242277
0 COSMOS 2251 DEB
1 34560U 93036UW  13295.74759907  .00003711  00000-0  13018-2 0  8667
2 34560 074.0306 127.4470 0032586 205.4258 255.5369 14.35072083242562
